CCSDS_OMM_VERS = 2.0
CREATION_DATE  = 
ORIGINATOR     = 

OBJECT_NAME    = STARLINK-36428
OBJECT_ID      = 2026-003AE
CENTER_NAME    = EARTH
REF_FRAME      = TEME
TIME_SYSTEM    = UTC
MEAN_ELEMENT_THEORY = SGP/SGP4

EPOCH          = 2026-01-19T06:00:02.000160
MEAN_MOTION    = 15.88689056
ECCENTRICITY   = .00016141
INCLINATION    = 42.9984
RA_OF_ASC_NODE = 153.0369
ARG_OF_PERICENTER = 273.4119
MEAN_ANOMALY   = 152.9325

EPHEMERIS_TYPE = 0
CLASSIFICATION_TYPE = U
NORAD_CAT_ID   = 67362
ELEMENT_SET_NO = 999
REV_AT_EPOCH   = 272
BSTAR          = -.64946911E-2
MEAN_MOTION_DOT = -.1651831E-1
MEAN_MOTION_DDOT = 0

CCSDS_OMM_VERS = 2.0
CREATION_DATE  = 
ORIGINATOR     = 

OBJECT_NAME    = SHIJIAN-29B (SJ-29B)
OBJECT_ID      = 2025-315C
CENTER_NAME    = EARTH
REF_FRAME      = TEME
TIME_SYSTEM    = UTC
MEAN_ELEMENT_THEORY = SGP/SGP4

EPOCH          = 2026-01-18T22:53:07.165824
MEAN_MOTION    = 1.00271673
ECCENTRICITY   = .000091
INCLINATION    = 3.0191
RA_OF_ASC_NODE = 99.0595
ARG_OF_PERICENTER = 323.2366
MEAN_ANOMALY   = 112.4299

EPHEMERIS_TYPE = 0
CLASSIFICATION_TYPE = U
NORAD_CAT_ID   = 67403
ELEMENT_SET_NO = 999
REV_AT_EPOCH   = 19
BSTAR          = 0
MEAN_MOTION_DOT = -.54E-6
MEAN_MOTION_DDOT = 0

CCSDS_OMM_VERS = 2.0
CREATION_DATE  = 
ORIGINATOR     = 

OBJECT_NAME    = YAOGAN-50 01
OBJECT_ID      = 2026-006A
CENTER_NAME    = EARTH
REF_FRAME      = TEME
TIME_SYSTEM    = UTC
MEAN_ELEMENT_THEORY = SGP/SGP4

EPOCH          = 2026-01-16T04:17:29.045760
MEAN_MOTION    = 14.21837795
ECCENTRICITY   = .01649624
INCLINATION    = 141.9984
RA_OF_ASC_NODE = 200.7842
ARG_OF_PERICENTER = 123.7171
MEAN_ANOMALY   = 237.9391

EPHEMERIS_TYPE = 0
CLASSIFICATION_TYPE = U
NORAD_CAT_ID   = 67433
ELEMENT_SET_NO = 999
REV_AT_EPOCH   = 37
BSTAR          = .12657815E-3
MEAN_MOTION_DOT = .537E-5
MEAN_MOTION_DDOT = 0

CCSDS_OMM_VERS = 2.0
CREATION_DATE  = 
ORIGINATOR     = 

OBJECT_NAME    = CZ-6A R/B
OBJECT_ID      = 2026-006B
CENTER_NAME    = EARTH
REF_FRAME      = TEME
TIME_SYSTEM    = UTC
MEAN_ELEMENT_THEORY = SGP/SGP4

EPOCH          = 2026-01-13T17:12:57.362112
MEAN_MOTION    = 14.62247694
ECCENTRICITY   = .02017257
INCLINATION    = 142.0438
RA_OF_ASC_NODE = 188.1412
ARG_OF_PERICENTER = 82.0696
MEAN_ANOMALY   = 280.2897

EPHEMERIS_TYPE = 0
CLASSIFICATION_TYPE = U
NORAD_CAT_ID   = 67434
ELEMENT_SET_NO = 999
REV_AT_EPOCH   = 2
BSTAR          = .30805067E-4
MEAN_MOTION_DOT = .541E-5
MEAN_MOTION_DDOT = 0

CCSDS_OMM_VERS = 2.0
CREATION_DATE  = 
ORIGINATOR     = 

OBJECT_NAME    = HULIANWANG DIGUI 18A
OBJECT_ID      = 2026-007A
CENTER_NAME    = EARTH
REF_FRAME      = TEME
TIME_SYSTEM    = UTC
MEAN_ELEMENT_THEORY = SGP/SGP4

EPOCH          = 2026-01-19T06:53:24.057600
MEAN_MOTION    = 13.92121458
ECCENTRICITY   = .00083756
INCLINATION    = 50.0083
RA_OF_ASC_NODE = 271.9360
ARG_OF_PERICENTER = 289.0374
MEAN_ANOMALY   = 70.9618

EPHEMERIS_TYPE = 0
CLASSIFICATION_TYPE = U
NORAD_CAT_ID   = 67435
ELEMENT_SET_NO = 999
REV_AT_EPOCH   = 79
BSTAR          = .15959288E-3
MEAN_MOTION_DOT = .58E-6
MEAN_MOTION_DDOT = 0

CCSDS_OMM_VERS = 2.0
CREATION_DATE  = 
ORIGINATOR     = 

OBJECT_NAME    = HULIANWANG DIGUI 18B
OBJECT_ID      = 2026-007B
CENTER_NAME    = EARTH
REF_FRAME      = TEME
TIME_SYSTEM    = UTC
MEAN_ELEMENT_THEORY = SGP/SGP4

EPOCH          = 2026-01-19T06:54:02.430432
MEAN_MOTION    = 13.92014216
ECCENTRICITY   = .00074916
INCLINATION    = 50.0064
RA_OF_ASC_NODE = 271.9356
ARG_OF_PERICENTER = 277.0086
MEAN_ANOMALY   = 82.9961

EPHEMERIS_TYPE = 0
CLASSIFICATION_TYPE = U
NORAD_CAT_ID   = 67436
ELEMENT_SET_NO = 999
REV_AT_EPOCH   = 79
BSTAR          = .15071625E-3
MEAN_MOTION_DOT = .47E-6
MEAN_MOTION_DDOT = 0

CCSDS_OMM_VERS = 2.0
CREATION_DATE  = 
ORIGINATOR     = 

OBJECT_NAME    = HULIANWANG DIGUI 18C
OBJECT_ID      = 2026-007C
CENTER_NAME    = EARTH
REF_FRAME      = TEME
TIME_SYSTEM    = UTC
MEAN_ELEMENT_THEORY = SGP/SGP4

EPOCH          = 2026-01-19T06:53:47.161824
MEAN_MOTION    = 13.92054573
ECCENTRICITY   = .00081523
INCLINATION    = 50.0032
RA_OF_ASC_NODE = 271.9313
ARG_OF_PERICENTER = 284.2469
MEAN_ANOMALY   = 75.7525

EPHEMERIS_TYPE = 0
CLASSIFICATION_TYPE = U
NORAD_CAT_ID   = 67437
ELEMENT_SET_NO = 999
REV_AT_EPOCH   = 79
BSTAR          = .20237671E-3
MEAN_MOTION_DOT = .113E-5
MEAN_MOTION_DDOT = 0

CCSDS_OMM_VERS = 2.0
CREATION_DATE  = 
ORIGINATOR     = 

OBJECT_NAME    = HULIANWANG DIGUI 18D
OBJECT_ID      = 2026-007D
CENTER_NAME    = EARTH
REF_FRAME      = TEME
TIME_SYSTEM    = UTC
MEAN_ELEMENT_THEORY = SGP/SGP4

EPOCH          = 2026-01-19T06:54:41.589504
MEAN_MOTION    = 13.91901947
ECCENTRICITY   = .00089582
INCLINATION    = 50.0058
RA_OF_ASC_NODE = 271.9375
ARG_OF_PERICENTER = 282.9530
MEAN_ANOMALY   = 77.0369

EPHEMERIS_TYPE = 0
CLASSIFICATION_TYPE = U
NORAD_CAT_ID   = 67438
ELEMENT_SET_NO = 999
REV_AT_EPOCH   = 79
BSTAR          = .18011623E-3
MEAN_MOTION_DOT = .84E-6
MEAN_MOTION_DDOT = 0

CCSDS_OMM_VERS = 2.0
CREATION_DATE  = 
ORIGINATOR     = 

OBJECT_NAME    = HULIANWANG DIGUI 18E
OBJECT_ID      = 2026-007E
CENTER_NAME    = EARTH
REF_FRAME      = TEME
TIME_SYSTEM    = UTC
MEAN_ELEMENT_THEORY = SGP/SGP4

EPOCH          = 2026-01-19T06:53:07.243296
MEAN_MOTION    = 13.92170461
ECCENTRICITY   = .00067491
INCLINATION    = 50.0050
RA_OF_ASC_NODE = 271.9308
ARG_OF_PERICENTER = 281.8897
MEAN_ANOMALY   = 78.1245

EPHEMERIS_TYPE = 0
CLASSIFICATION_TYPE = U
NORAD_CAT_ID   = 67439
ELEMENT_SET_NO = 999
REV_AT_EPOCH   = 79
BSTAR          = .15997475E-3
MEAN_MOTION_DOT = .59E-6
MEAN_MOTION_DDOT = 0

CCSDS_OMM_VERS = 2.0
CREATION_DATE  = 
ORIGINATOR     = 

OBJECT_NAME    = HULIANWANG DIGUI 18F
OBJECT_ID      = 2026-007F
CENTER_NAME    = EARTH
REF_FRAME      = TEME
TIME_SYSTEM    = UTC
MEAN_ELEMENT_THEORY = SGP/SGP4

EPOCH          = 2026-01-19T06:52:22.084608
MEAN_MOTION    = 13.92299411
ECCENTRICITY   = .00075848
INCLINATION    = 50.0128
RA_OF_ASC_NODE = 271.9385
ARG_OF_PERICENTER = 290.8190
MEAN_ANOMALY   = 69.1897

EPHEMERIS_TYPE = 0
CLASSIFICATION_TYPE = U
NORAD_CAT_ID   = 67440
ELEMENT_SET_NO = 999
REV_AT_EPOCH   = 79
BSTAR          = .31795403E-4
MEAN_MOTION_DOT = -.106E-5
MEAN_MOTION_DDOT = 0

CCSDS_OMM_VERS = 2.0
CREATION_DATE  = 
ORIGINATOR     = 

OBJECT_NAME    = HULIANWANG DIGUI 18G
OBJECT_ID      = 2026-007G
CENTER_NAME    = EARTH
REF_FRAME      = TEME
TIME_SYSTEM    = UTC
MEAN_ELEMENT_THEORY = SGP/SGP4

EPOCH          = 2026-01-19T06:52:12.050976
MEAN_MOTION    = 13.92328796
ECCENTRICITY   = .00063257
INCLINATION    = 50.0106
RA_OF_ASC_NODE = 271.9348
ARG_OF_PERICENTER = 287.2988
MEAN_ANOMALY   = 72.7219

EPHEMERIS_TYPE = 0
CLASSIFICATION_TYPE = U
NORAD_CAT_ID   = 67441
ELEMENT_SET_NO = 999
REV_AT_EPOCH   = 79
BSTAR          = .16504181E-3
MEAN_MOTION_DOT = .66E-6
MEAN_MOTION_DDOT = 0

CCSDS_OMM_VERS = 2.0
CREATION_DATE  = 
ORIGINATOR     = 

OBJECT_NAME    = HULIANWANG DIGUI 18H
OBJECT_ID      = 2026-007H
CENTER_NAME    = EARTH
REF_FRAME      = TEME
TIME_SYSTEM    = UTC
MEAN_ELEMENT_THEORY = SGP/SGP4

EPOCH          = 2026-01-19T06:51:51.656256
MEAN_MOTION    = 13.92385483
ECCENTRICITY   = .00074823
INCLINATION    = 50.0094
RA_OF_ASC_NODE = 271.9328
ARG_OF_PERICENTER = 297.6783
MEAN_ANOMALY   = 62.3357

EPHEMERIS_TYPE = 0
CLASSIFICATION_TYPE = U
NORAD_CAT_ID   = 67442
ELEMENT_SET_NO = 999
REV_AT_EPOCH   = 79
BSTAR          = .14785661E-3
MEAN_MOTION_DOT = .44E-6
MEAN_MOTION_DDOT = 0

