STARLINK-36428          
1 67362U 26003AE  26019.25002315 -.01651831  00000+0 -64947-2 0  9999
2 67362  42.9984 153.0369 0001614 273.4119 152.9325 15.88689056  2722
SHIJIAN-29B (SJ-29B)    
1 67403U 25315C   26018.95355516 -.00000054  00000+0  00000+0 0  9990
2 67403   3.0191  99.0595 0000910 323.2366 112.4299  1.00271673   193
YAOGAN-50 01            
1 67433U 26006A   26016.17880840  .00000537  00000+0  12658-3 0  9997
2 67433 141.9984 200.7842 0164962 123.7171 237.9391 14.21837795   375
CZ-6A R/B               
1 67434U 26006B   26013.71733058  .00000541  00000+0  30805-4 0  9993
2 67434 142.0438 188.1412 0201725  82.0696 280.2897 14.62247694    24
HULIANWANG DIGUI 18A    
1 67435U 26007A   26019.28708400  .00000058  00000+0  15959-3 0  9991
2 67435  50.0083 271.9360 0008375 289.0374  70.9618 13.92121458   790
HULIANWANG DIGUI 18B    
1 67436U 26007B   26019.28752813  .00000047  00000+0  15072-3 0  9993
2 67436  50.0064 271.9356 0007491 277.0086  82.9961 13.92014216   797
HULIANWANG DIGUI 18C    
1 67437U 26007C   26019.28735141  .00000113  00000+0  20238-3 0  9993
2 67437  50.0032 271.9313 0008152 284.2469  75.7525 13.92054573   792
HULIANWANG DIGUI 18D    
1 67438U 26007D   26019.28798136  .00000084  00000+0  18012-3 0  9991
2 67438  50.0058 271.9375 0008958 282.9530  77.0369 13.91901947   793
HULIANWANG DIGUI 18E    
1 67439U 26007E   26019.28688939  .00000059  00000+0  15997-3 0  9992
2 67439  50.0050 271.9308 0006749 281.8897  78.1245 13.92170461   797
HULIANWANG DIGUI 18F    
1 67440U 26007F   26019.28636672 -.00000106  00000+0  31795-4 0  9990
2 67440  50.0128 271.9385 0007584 290.8190  69.1897 13.92299411   794
HULIANWANG DIGUI 18G    
1 67441U 26007G   26019.28625059  .00000066  00000+0  16504-3 0  9992
2 67441  50.0106 271.9348 0006325 287.2988  72.7219 13.92328796   794
HULIANWANG DIGUI 18H    
1 67442U 26007H   26019.28601454  .00000044  00000+0  14786-3 0  9992
2 67442  50.0094 271.9328 0007482 297.6783  62.3357 13.92385483   796
